     2.100          NAVIGATION                              RINEX VERSION / TYPE
fic2rin                                 09/07/2008 01:55:11 PGM / RUN BY / DATE
                                                            END OF HEADER
 2 08  9  6 16  0  0.0  .189393758774D-03 -.284217094304D-11  .000000000000D+00
     .770000000000D+02  .592500000000D+02  .480412868267D-08 -.659289507677D+00
     .314414501190D-05  .874144199770D-02  .831112265587D-05  .515377139091D+04
     .576000000000D+06 -.372529029846D-07 -.192995063549D+01 -.244006514549D-06
     .942629207513D+00  .215343750000D+03  .263734288943D+01 -.811069498586D-08
    -.122505102829D-09  .100000000000D+01  .149500000000D+04  .000000000000D+00
     .240000000000D+01  .000000000000D+00 -.172294676304D-07  .770000000000D+02
     .568806000000D+06  .400000000000D+01
 3 08  9  6 16  0  0.0  .279836356640D-03  .511590769747D-11  .000000000000D+00
     .260000000000D+02 -.134687500000D+02  .552380151708D-08 -.991302554725D+00
    -.687316060066D-06  .111206667498D-01  .714696943760D-05  .515369179344D+04
     .576000000000D+06  .199303030968D-06 -.307456234846D+01  .197440385818D-06
     .926392671813D+00  .222218750000D+03  .844732053589D+00 -.843106547343D-08
    -.249296098469D-09  .100000000000D+01  .149500000000D+04  .000000000000D+00
     .240000000000D+01  .000000000000D+00 -.419095158577D-08  .260000000000D+02
     .568806000000D+06  .400000000000D+01
 4 08  9  6 16  0  0.0 -.163637101650D-03 -.108002495836D-10  .000000000000D+00
     .129000000000D+03  .581562500000D+02  .479127100424D-08  .214448642196D+01
     .295601785183D-05  .826522859279D-02  .863522291183D-05  .515358383560D+04
     .576000000000D+06 -.109896063805D-06 -.191122371437D+01  .558793544769D-08
     .941899329888D+00  .208406250000D+03  .393245480138D+00 -.807319342377D-08
    -.220723479733D-09  .100000000000D+01  .149500000000D+04  .000000000000D+00
     .240000000000D+01  .000000000000D+00 -.605359673500D-08  .129000000000D+03
     .568806000000D+06  .400000000000D+01
 5 08  9  6 16  0  0.0  .110432039946D-03 -.220438778342D-09  .000000000000D+00
     .410000000000D+02 -.296250000000D+02  .509806949791D-08  .173948637019D+01
    -.171177089214D-05  .926923844963D-02  .701099634171D-05  .515369557762D+04
     .576000000000D+06 -.121071934700D-06  .217657817060D+01 -.191852450371D-06
     .943408588823D+00  .234718750000D+03  .126956780575D+01 -.818819821418D-08
     .280368821344D-09  .100000000000D+01  .149500000000D+04  .000000000000D+00
     .485000000000D+01  .630000000000D+02 -.419095158577D-08  .410000000000D+02
     .568806000000D+06  .400000000000D+01
 6 08  9  6 16  0  0.0  .167223159224D-03 -.795807864051D-12  .000000000000D+00
     .870000000000D+02 -.176250000000D+02  .530129224867D-08  .161063936735D+01
    -.123493373394D-05  .575273472350D-02  .748969614506D-05  .515371354866D+04
     .576000000000D+06  .242143869400D-07 -.300914589798D+01 -.156462192535D-06
     .933939370255D+00  .219468750000D+03 -.158376926342D+01 -.824748639806D-08
    -.277868717205D-09  .100000000000D+01  .149500000000D+04  .000000000000D+00
     .240000000000D+01  .000000000000D+00 -.465661287308D-08  .870000000000D+02
     .568806000000D+06  .400000000000D+01
 8 08  9  6 16  0  0.0 -.168861355633D-03 -.159161572810D-11  .000000000000D+00
     .760000000000D+02 -.409062500000D+02  .394016412365D-08 -.308175103866D+01
    -.192597508430D-05  .105373880360D-01  .792555510998D-05  .515372536469D+04
     .576000000000D+06 -.141561031342D-06  .127678479610D+01  .372529029846D-07
     .984736600952D+00  .241218750000D+03  .290230439416D+01 -.757352975363D-08
     .312870175156D-09  .100000000000D+01  .149500000000D+04  .000000000000D+00
     .340000000000D+01  .000000000000D+00 -.372529029846D-08  .760000000000D+02
     .568806000000D+06  .400000000000D+01
 9 08  9  6 16  0  0.0  .136275775731D-04  .181898940355D-11  .000000000000D+00
     .890000000000D+02 -.599062500000D+02  .409124184522D-08  .283636384011D+01
    -.319257378578D-05  .201557808323D-01  .782497227192D-05  .515366769600D+04
     .576000000000D+06  .225380063057D-06  .118592988258D+01 -.201165676117D-06
     .972615142628D+00  .230968750000D+03  .143916191935D+01 -.751531304295D-08
     .194650965137D-09  .100000000000D+01  .149500000000D+04  .000000000000D+00
     .340000000000D+01  .000000000000D+00 -.558793544769D-08  .890000000000D+02
     .568806000000D+06  .400000000000D+01
10 08  9  6 16  0  0.0 -.457372516394D-05 -.341060513165D-12  .000000000000D+00
     .100000000000D+02  .528125000000D+02  .442982737723D-08  .258916452201D+00
     .288896262646D-05  .800406862982D-02  .436790287495D-05  .515369992828D+04
     .576000000000D+06  .931322574615D-07 -.846938542207D+00  .175088644028D-06
     .962014131636D+00  .294906250000D+03  .556680832974D+00 -.823570019283D-08
     .535736601294D-11  .100000000000D+01  .149500000000D+04  .000000000000D+00
     .240000000000D+01  .000000000000D+00 -.232830643654D-08  .100000000000D+02
     .568806000000D+06  .400000000000D+01
11 08  9  6 16  0  0.0  .203396193683D-04 -.682121026330D-12  .000000000000D+00
     .740000000000D+02  .340625000000D+02  .593596154234D-08 -.263304870699D+01
     .178068876266D-05  .843235978391D-02  .865198671818D-05  .515364780235D+04
     .576000000000D+06 -.149011611938D-07 -.211685030926D+01 -.540167093277D-07
     .890626336288D+00  .174156250000D+03  .608468726925D+00 -.850964017496D-08
    -.160720980388D-09  .100000000000D+01  .149500000000D+04  .000000000000D+00
     .240000000000D+01  .000000000000D+00 -.121071934700D-07  .740000000000D+02
     .568806000000D+06  .400000000000D+01
12 08  9  6 16  0  0.0 -.351988710463D-03  .147792889038D-11  .000000000000D+00
     .670000000000D+02 -.266875000000D+02  .462554981557D-08 -.219533567988D+01
    -.137463212013D-05  .316052453127D-02  .708922743797D-05  .515352865410D+04
     .576000000000D+06 -.800937414169D-07  .227232245332D+01  .987201929092D-07
     .964617945878D+00  .243562500000D+03 -.862261933219D+00 -.792783022595D-08
     .199651173416D-09  .100000000000D+01  .149500000000D+04  .000000000000D+00
     .240000000000D+01  .000000000000D+00 -.116415321827D-07  .670000000000D+02
     .568806000000D+06  .400000000000D+01
13 08  9  6 16  0  0.0  .270229298621D-03  .125055521494D-11  .000000000000D+00
     .840000000000D+02 -.321250000000D+02  .366515266832D-08 -.966791488118D-01
    -.196881592274D-05  .372843025252D-02  .556558370590D-05  .515358426094D+04
     .576000000000D+06 -.465661287308D-07  .224686958931D+00  .931322574615D-08
     .995738950353D+00  .292812500000D+03  .154603208027D+01 -.779818196844D-08
     .160720980388D-10  .100000000000D+01  .149500000000D+04  .000000000000D+00
     .340000000000D+01  .000000000000D+00 -.111758708954D-07  .840000000000D+02
     .568806000000D+06  .400000000000D+01
14 08  9  6 16  0  0.0 -.223061535507D-03  .466116034659D-11  .000000000000D+00
     .180000000000D+02 -.325625000000D+02  .391159150492D-08 -.312935405941D+00
    -.163726508617D-05  .412945158314D-02  .475160777569D-05  .515373198318D+04
     .576000000000D+06 -.186264514923D-07  .206797551091D+00  .894069671631D-07
     .989416585607D+00  .305968750000D+03 -.218686518524D+01 -.795818863336D-08
     .000000000000D+00  .100000000000D+01  .149500000000D+04  .000000000000D+00
     .240000000000D+01  .000000000000D+00 -.931322574615D-08  .180000000000D+02
     .568806000000D+06  .400000000000D+01
15 08  9  6 16  0  0.0 -.172758940607D-03 -.648014975013D-11  .000000000000D+00
     .230000000000D+02 -.375000000000D+02  .454554648311D-08  .561489166746D+00
    -.196136534214D-05  .842018285766D-03  .461004674435D-05  .515369945526D+04
     .576000000000D+06 -.409781932831D-07  .162589326830D+00 -.242143869400D-07
     .957703460650D+00  .286406250000D+03 -.119881068463D+01 -.825498671047D-08
    -.375015620906D-10  .100000000000D+01  .149500000000D+04  .000000000000D+00
     .240000000000D+01  .000000000000D+00 -.977888703346D-08  .230000000000D+02
     .568806000000D+06  .400000000000D+01
16 08  9  6 16  0  0.0  .108373351395D-03 -.193267624127D-11  .000000000000D+00
     .640000000000D+02 -.313125000000D+02  .465483674978D-08  .148821517615D+01
    -.145472586155D-05  .472377589904D-02  .668317079544D-05  .515366005325D+04
     .576000000000D+06  .949949026108D-07  .228886318235D+01 -.242143869400D-07
     .966253478050D+00  .249625000000D+03 -.407193413629D+00 -.796568894578D-08
     .892894335490D-10  .100000000000D+01  .149500000000D+04  .000000000000D+00
     .240000000000D+01  .000000000000D+00 -.977888703346D-08  .640000000000D+02
     .568806000000D+06  .400000000000D+01
17 08  9  6 16  0  0.0  .388980843127D-04  .000000000000D+00  .000000000000D+00
     .370000000000D+02 -.136875000000D+02  .474412618333D-08  .303080060387D+00
    -.752508640289D-06  .379888585303D-02  .788643956184D-05  .515358610916D+04
     .576000000000D+06  .130385160446D-07 -.295317415048D+01  .204890966415D-07
     .960014025649D+00  .226468750000D+03 -.278435391762D+01 -.805997858760D-08
    -.327870799992D-09  .100000000000D+01  .149500000000D+04  .000000000000D+00
     .240000000000D+01  .000000000000D+00 -.102445483208D-07  .370000000000D+02
     .568806000000D+06  .400000000000D+01
18 08  9  6 16  0  0.0 -.136811751872D-03  .409272615798D-11  .000000000000D+00
     .550000000000D+02  .702500000000D+02  .481662920337D-08  .165033832365D+01
     .359117984772D-05  .983861915302D-02  .456534326077D-05  .515371765327D+04
     .576000000000D+06 -.184401869774D-06 -.837527808178D+00  .316649675369D-07
     .946097280109D+00  .283031250000D+03 -.246886884150D+01 -.840856453618D-08
    -.607168148133D-10  .100000000000D+01  .149500000000D+04  .000000000000D+00
     .240000000000D+01  .000000000000D+00 -.107102096081D-07  .550000000000D+02
     .568806000000D+06  .400000000000D+01
